STARLINK-2633_new
1 18435C 21040H   21326.15715226 -.00009889  00000-0 -69206-3 0  3260
2 18435  53.0553   6.6238 0001352  70.8551  87.0477 15.04789806    11
STARLINK-2633_old
1 28435C 21040H   21325.13629444  .00002814  00000-0  19696-3 0  3259
2 28435  53.0550  11.1953 0001313  72.4020 312.2834 15.04767460    11
